NORAD_CAT_ID,OBJECT_NAME,OBJECT_TYPE,EPOCH,MEAN_MOTION,ECCENTRICITY,INCLINATION,RA_OF_ASC_NODE,ARG_OF_PERICENTER,MEAN_ANOMALY,BSTAR,MEAN_MOTION_DOT,MEAN_MOTION_DDOT,TLE_LINE0,TLE_LINE1,TLE_LINE2,SEMIMAJOR_AXIS,PERIOD,APOGEE,PERIGEE,DECAYED
53294.0,STARLINK-4146,PAYLOAD,2023-01-19 10:17:40,15.08831629,4.86e-05,53.2182,275.391,306.7698,53.3249,8.6402e-05,1.088e-05,0.0,0 STARLINK-4146,1 53294U 22086BE  23019.42894393  .00001088  00000-0  86402-4 0  9999,2 53294  53.2182 275.3910 0000486 306.7698  53.3249 15.08831629 28278,6917.906,95.438,540.107,539.435,0.0
53294.0,STARLINK-4146,PAYLOAD,2023-01-20 10:08:28,15.08843861,0.0001304,53.2182,270.93,76.1719,283.9418,-7.7138e-05,-1.515e-05,0.0,0 STARLINK-4146,1 53294U 22086BE  23020.42255074 -.00001515  00000-0 -77138-4 0  9991,2 53294  53.2182 270.9300 0001304  76.1719 283.9418 15.08843861 28623,6917.869000000001,95.437,540.636,538.831,0.0
53294.0,STARLINK-4146,PAYLOAD,2023-01-20 19:40:46,15.08842497,0.0001125,53.2179,269.1456,76.6898,283.422,2.4175e-06,-2.49e-06,0.0,0 STARLINK-4146,1 53294U 22086BE  23020.81998777 -.00000249  00000-0  24175-5 0  9994,2 53294  53.2179 269.1456 0001125  76.6898 283.4220 15.08842497 28489,6917.8730000000005,95.437,540.516,538.9590000000001,0.0
53294.0,STARLINK-4146,PAYLOAD,2023-01-21 02:02:18,15.08855776,0.0001088,53.2191,267.9547,96.3391,263.7725,-4.5088e-05,-1.006e-05,0.0,0 STARLINK-4146,1 53294U 22086BE  23021.08493981 -.00001006  00000-0 -45088-4 0  9999,2 53294  53.2191 267.9547 0001088  96.3391 263.7725 15.08855776 28525,6917.831999999999,95.437,540.45,538.945,0.0
53294.0,STARLINK-4146,PAYLOAD,2023-01-21 09:59:14,15.08850992,0.0001149999999999,53.2192,266.4692,90.8133,269.2991,-8.3149e-05,-1.611e-05,0.0,0 STARLINK-4146,1 53294U 22086BE  23021.41614260 -.00001611  00000-0 -83149-4 0  9993,2 53294  53.2192 266.4692 0001150  90.8133 269.2991 15.08850992 28570,6917.847,95.437,540.507,538.9159999999999,0.0
53294.0,STARLINK-4146,PAYLOAD,2023-01-21 16:20:48,15.08828829,0.0001445,53.2171,265.2803,97.592,262.5236,8.3372e-05,1.039e-05,0.0,0 STARLINK-4146,1 53294U 22086BE  23021.68111281  .00001039  00000-0  83372-4 0  9997,2 53294  53.2171 265.2803 0001445  97.5920 262.5236 15.08828829 28610,6917.915,95.438,540.779,538.78,0.0
53294.0,STARLINK-4146,PAYLOAD,2023-01-23 01:43:53,15.08843747,0.0001192,53.2179,259.0369,88.2834,271.8295,-2.9176e-05,-7.52e-06,0.0,0 STARLINK-4146,1 53294U 22086BE  23023.07215128 -.00000752  00000-0 -29176-4 0  9992,2 53294  53.2179 259.0369 0001192  88.2834 271.8295 15.08843747 28823,6917.869000000001,95.437,540.559,538.909,0.0
53294.0,STARLINK-4146,PAYLOAD,2023-01-24 19:03:55,15.08839385,0.0001202,53.2171,251.3042,96.9235,263.1894,4.1753000000000005e-05,3.77e-06,0.0,0 STARLINK-4146,1 53294U 22086BE  23024.79439178  .00000377  00000-0  41753-4 0  9991,2 53294  53.2171 251.3042 0001202  96.9235 263.1894 15.08839385 29082,6917.882,95.438,540.5790000000001,538.9159999999999,0.0
53294.0,STARLINK-4146,PAYLOAD,2023-01-25 07:47:00,15.08838398,0.0001112,53.2183,248.9255,84.758,275.3539,2.5407e-06,-2.47e-06,0.0,0 STARLINK-4146,1 53294U 22086BE  23025.32431408 -.00000247  00000-0  25407-5 0  9995,2 53294  53.2183 248.9255 0001112  84.7580 275.3539 15.08838398 29366,6917.885,95.438,540.52,538.981,0.0
53294.0,STARLINK-4146,PAYLOAD,2023-01-25 23:40:52,15.08840322,0.0001175,53.2183,245.9508,91.2724,268.8403,-7.040299999999999e-06,-4e-06,0.0,0 STARLINK-4146,1 53294U 22086BE  23025.98671396 -.00000400  00000-0 -70403-5 0  9997,2 53294  53.2183 245.9508 0001175  91.2724 268.8403 15.08840322 29262,6917.879,95.438,540.557,538.932,0.0
53294.0,STARLINK-4146,PAYLOAD,2023-01-26 21:56:16,15.08805626,9.940000000000002e-05,53.2187,241.7906,102.9094,257.2009,0.00049754,7.632e-05,0.0,0 STARLINK-4146,1 53294U 22086BE  23026.91407536  .00007632  00000-0  49754-3 0  9999,2 53294  53.2187 241.7906 0000994 102.9094 257.2009 15.08805626 29408,6917.985,95.44,540.538,539.163,0.0
53294.0,STARLINK-4146,PAYLOAD,2023-01-27 20:11:40,15.08820678,0.0001013,53.218,237.626,98.394,261.7167,0.00018436,2.646e-05,0.0,0 STARLINK-4146,1 53294U 22086BE  23027.84144098  .00002646  00000-0  18436-3 0  9996,2 53294  53.2180 237.6260 0001013  98.3940 261.7167 15.08820678 29543,6917.939,95.439,540.505,539.104,0.0
53294.0,STARLINK-4146,PAYLOAD,2023-01-28 00:57:49,15.08841321,0.0001060999999999,53.2181,236.7338,94.881,265.2303,1.7867e-05,-3e-08,0.0,0 STARLINK-4146,1 53294U 22086BE  23028.04015236 -.00000003  00000-0  17867-4 0  9994,2 53294  53.2181 236.7338 0001061  94.8810 265.2303 15.08841321 29572,6917.876,95.437,540.475,539.007,0.0
53294.0,STARLINK-4146,PAYLOAD,2023-01-28 20:02:27,15.08841457,0.0001111,53.2176,233.1668,86.7616,273.3503,-2.0714e-05,-6.17e-06,0.0,0 STARLINK-4146,1 53294U 22086BE  23028.83503474 -.00000617  00000-0 -20714-4 0  9994,2 53294  53.2176 233.1668 0001111  86.7616 273.3503 15.08841457 29890,6917.876,95.437,540.51,538.972,0.0
53294.0,STARLINK-4146,PAYLOAD,2023-01-29 13:31:41,15.08840259,0.0001138,53.2173,229.8957,83.9442,276.168,1.7338e-05,-1.2e-07,0.0,0 STARLINK-4146,1 53294U 22086BE  23029.56367400 -.00000012  00000-0  17338-4 0  9998,2 53294  53.2173 229.8957 0001138  83.9442 276.1680 15.08840259 29802,6917.88,95.438,540.532,538.957,0.0
53294.0,STARLINK-4146,PAYLOAD,2023-01-29 19:53:13,15.08841841,0.0001125,53.2174,228.7059,85.0228,275.0892,3.0588e-05,1.99e-06,0.0,0 STARLINK-4146,1 53294U 22086BE  23029.82863206  .00000199  00000-0  30588-4 0  9999,2 53294  53.2174 228.7059 0001125  85.0228 275.0892 15.08841841 30044,6917.875,95.437,540.518,538.962,0.0
53294.0,STARLINK-4146,PAYLOAD,2023-01-29 23:04:00,15.08842441,0.0001124,53.2174,228.1112,84.4124,275.6996,3.441e-05,2.6e-06,0.0,0 STARLINK-4146,1 53294U 22086BE  23029.96111132  .00000260  00000-0  34410-4 0  9995,2 53294  53.2174 228.1112 0001124  84.4124 275.6996 15.08842441 30065,6917.873,95.437,540.515,538.96,0.0
53294.0,STARLINK-4146,PAYLOAD,2023-01-30 21:18:55,15.09091698,0.0001647,53.2172,223.9462,28.6389,331.4694,0.0017181,0.00027351,0.0,0 STARLINK-4146,1 53294U 22086BE  23030.88814526  .00027351  00000-0  17181-2 0  9999,2 53294  53.2172 223.9462 0001647  28.6389 331.4694 15.09091698 30008,6917.111,95.422,540.115,537.837,0.0
53294.0,STARLINK-4146,PAYLOAD,2023-01-31 05:15:13,15.09477294,9.24e-05,53.2177,222.4562,123.1856,236.9225,0.0045557,0.00074269,0.0,0 STARLINK-4146,1 53294U 22086BE  23031.21890632  .00074269  00000-0  45557-2 0  9997,2 53294  53.2177 222.4562 0000924 123.1856 236.9225 15.09477294 30059,6915.933,95.397,538.437,537.159,0.0
53294.0,STARLINK-4146,PAYLOAD,2023-01-31 11:36:25,15.09624169,6.06e-05,53.2177,221.265,74.5579,285.548,0.0053271,0.00087408,0.0,0 STARLINK-4146,1 53294U 22086BE  23031.48363120  .00087408  00000-0  53271-2 0  9994,2 53294  53.2177 221.2650 0000606  74.5579 285.5480 15.09624169 30094,6915.485,95.388,537.769,536.93,0.0
53294.0,STARLINK-4146,PAYLOAD,2023-01-31 22:00:00,15.1044617,0.0001565,53.2164,219.3214,79.7081,115.0171,0.0023063,0.00038277,0.0,0 STARLINK-4146,1 53294U 22086BE  23031.91667824  .00038277  00000-0  23063-2 0  9996,2 53294  53.2164 219.3214 0001565  79.7081 115.0171 15.10446170 30162,6912.975,95.336,535.922,533.758,0.0
53294.0,STARLINK-4146,PAYLOAD,2023-02-01 14:00:01,15.10522818,0.0001606,53.2162,216.3198,90.4639,131.3945,-0.0015543,-0.00026108,0.0,0 STARLINK-4146,1 53294U 22086BE  23032.58334491 -.00026108  00000-0 -15543-2 0  9997,2 53294  53.2162 216.3198 0001606  90.4639 131.3945 15.10522818  1301,6912.741,95.331,535.717,533.496,0.0
53294.0,STARLINK-4146,PAYLOAD,2023-02-01 22:00:00,15.10473386,0.0001466,53.2158,214.821,81.286,154.1893,-0.0016651,-0.00027903,0.0,0 STARLINK-4146,1 53294U 22086BE  23032.91667824 -.00027903  00000-0 -16651-2 0  9998,2 53294  53.2158 214.8210 0001466  81.2860 154.1893 15.10473386 30315,6912.892,95.334,535.771,533.744,0.0
53294.0,STARLINK-4146,PAYLOAD,2023-02-02 14:00:01,15.1047451,0.0001371,53.2155,211.8194,93.1236,169.4286,-0.00093265,-0.00015784,0.0,0 STARLINK-4146,1 53294U 22086BE  23033.58334491 -.00015784  00000-0 -93265-3 0  9994,2 53294  53.2155 211.8194 0001371  93.1236 169.4286 15.10474510  1306,6912.889,95.334,535.702,533.806,0.0
53294.0,STARLINK-4146,PAYLOAD,2023-02-03 00:00:00,15.10455891,0.0001315,53.2149,209.9454,81.8603,287.6306,0.0013399,0.0002207,0.0,0 STARLINK-4146,1 53294U 22086BE  23034.00001157  .00022070  00000-0  13399-2 0  9995,2 53294  53.2149 209.9454 0001315  81.8603 287.6306 15.10455891 30473,6912.946,95.335,535.72,533.902,0.0
53294.0,STARLINK-4146,PAYLOAD,2023-02-03 14:00:01,15.10490692,0.0001365,53.2152,207.319,92.545,210.6495,-0.0014652,-0.00024611,0.0,0 STARLINK-4146,1 53294U 22086BE  23034.58334491 -.00024611  00000-0 -14652-2 0  9996,2 53294  53.2152 207.3190 0001365  92.5450 210.6495 15.10490692  1303,6912.839,95.333,535.648,533.761,0.0
53294.0,STARLINK-4146,PAYLOAD,2023-02-03 22:00:00,15.10451495,0.0001346,53.215,205.8202,83.1363,233.6353,0.0020762,0.00034415,0.0,0 STARLINK-4146,1 53294U 22086BE  23034.91667824  .00034415  00000-0  20762-2 0  9992,2 53294  53.2150 205.8202 0001346  83.1363 233.6353 15.10451495 30618,6912.959,95.336,535.755,533.894,0.0
53294.0,STARLINK-4146,PAYLOAD,2023-02-04 00:00:00,15.10464754,0.0001297,53.2148,205.4448,83.2516,326.9025,0.00077625,0.00012649,0.0,0 STARLINK-4146,1 53294U 22086BE  23035.00001157  .00012649  00000-0  77625-3 0  9990,2 53294  53.2148 205.4448 0001297  83.2516 326.9025 15.10464754  1307,6912.919,95.335,535.68,533.887,0.0
53294.0,STARLINK-4146,PAYLOAD,2023-02-04 06:07:53,15.10504965,0.0001536,53.2178,204.2942,91.3996,268.7172,-0.0003299,-5.785e-05,0.0,0 STARLINK-4146,1 53294U 22086BE  23035.25547668 -.00005785  00000-0 -32990-3 0  9990,2 53294  53.2178 204.2942 0001536  91.3996 268.7172 15.10504965 30660,6912.796,95.332,535.723,533.599,0.0
